[{"OBJECT_NAME":"LEMUR-2-KREMPEL-BRO1","OBJECT_ID":"2025-061G","EPOCH":"2026-03-05T21:33:15.607584","MEAN_MOTION":15.13720652,"ECCENTRICITY":0.00172968,"INCLINATION":97.5524,"RA_OF_ASC_NODE":41.5303,"ARG_OF_PERICENTER":243.2658,"MEAN_ANOMALY":116.6803,"EPHEMERIS_TYPE":0,"CLASSIFICATION_TYPE":"U","NORAD_CAT_ID":63357,"ELEMENT_SET_NO":999,"REV_AT_EPOCH":5200,"BSTAR":0.00029731797,"MEAN_MOTION_DOT":5.308e-5,"MEAN_MOTION_DDOT":0},{"OBJECT_NAME":"LEMUR-2-LANGER2SPACE","OBJECT_ID":"2025-061H","EPOCH":"2026-03-05T21:41:40.176672","MEAN_MOTION":15.13408634,"ECCENTRICITY":0.00151491,"INCLINATION":97.5531,"RA_OF_ASC_NODE":41.3921,"ARG_OF_PERICENTER":252.9963,"MEAN_ANOMALY":106.9609,"EPHEMERIS_TYPE":0,"CLASSIFICATION_TYPE":"U","NORAD_CAT_ID":63358,"ELEMENT_SET_NO":999,"REV_AT_EPOCH":5199,"BSTAR":0.00029379025,"MEAN_MOTION_DOT":5.194e-5,"MEAN_MOTION_DDOT":0},{"OBJECT_NAME":"LEMUR-2-BALTO","OBJECT_ID":"2025-052BH","EPOCH":"2026-03-05T16:32:52.704960","MEAN_MOTION":14.9886486,"ECCENTRICITY":0.00027968,"INCLINATION":97.6992,"RA_OF_ASC_NODE":319.5613,"ARG_OF_PERICENTER":9.9397,"MEAN_ANOMALY":350.1881,"EPHEMERIS_TYPE":0,"CLASSIFICATION_TYPE":"U","NORAD_CAT_ID":63395,"ELEMENT_SET_NO":999,"REV_AT_EPOCH":5325,"BSTAR":0.0007442089,"MEAN_MOTION_DOT":8.934e-5,"MEAN_MOTION_DDOT":0}]
