LEMUR-2-KREMPEL-BRO1    
1 63357U 25061G   26064.89809731  .00005308  00000+0  29732-3 0  9992
2 63357  97.5524  41.5303 0017296 243.2658 116.6803 15.13720652 52003
LEMUR-2-LANGER2SPACE    
1 63358U 25061H   26064.90393723  .00005194  00000+0  29379-3 0  9994
2 63358  97.5531  41.3921 0015149 252.9963 106.9609 15.13408634 51993
LEMUR-2-BALTO           
1 63395U 25052BH  26064.68949890  .00008934  00000+0  74421-3 0  9995
2 63395  97.6992 319.5613 0002796   9.9397 350.1881 14.98864860 53254
